{"type": "FeatureCollection", "features": [ {"type": "Feature", "properties": {"norad_id": 38552, "name": "METEOSAT-10 (MSG-3)", "group": "weather", "lat": -1.8267573692963412, "lon": -93.20117674529709, "alt_km": 35783.22518578045, "timestamp": "2025-12-24T11:32:59.645333+00:00", "meta": {"OBJECT_NAME": "METEOSAT-10 (MSG-3)", "OBJECT_ID": "2012-035B", "EPOCH": "2025-12-23T01:08:58.915968", "MEAN_MOTION": 1.0027689, "ECCENTRICITY": 7.313e-05, "INCLINATION": 4.2513, "RA_OF_ASC_NODE": 61.6947, "ARG_OF_PERICENTER": 264.0711, "MEAN_ANOMALY": 143.6614, "EPHEMERIS_TYPE": 0, "CLASSIFICATION_TYPE": "U", "NORAD_CAT_ID": 38552, "ELEMENT_SET_NO": 999, "REV_AT_EPOCH": 4909, "BSTAR": 0, "MEAN_MOTION_DOT": 1.6e-07, "MEAN_MOTION_DDOT": 0}, "tle": {"line1": "1 38552U 12035B   25357.04790412  .00000016  00000+0  00000+0 0  9998", "line2": "2 38552   4.2513  61.6947 0000731 264.0711 143.6614  1.00276890 49095"}}, "geometry": {"type": "Point", "coordinates": [-93.20117674529709, -1.8267573692963412]}}, {"type": "Feature", "properties": {"norad_id": 38771, "name": "METOP-B", "group": "weather", "lat": 15.745616133424942, "lon": 45.77202738305741, "alt_km": 821.7777530163421, "timestamp": "2025-12-24T11:32:59.645344+00:00", "meta": {"OBJECT_NAME": "METOP-B", "OBJECT_ID": "2012-049A", "EPOCH": "2025-12-24T03:01:41.058624", "MEAN_MOTION": 14.21412569, "ECCENTRICITY": 0.0003252, "INCLINATION": 98.6783, "RA_OF_ASC_NODE": 47.8911, "ARG_OF_PERICENTER": 120.3245, "MEAN_ANOMALY": 239.8255, "EPHEMERIS_TYPE": 0, "CLASSIFICATION_TYPE": "U", "NORAD_CAT_ID": 38771, "ELEMENT_SET_NO": 999, "REV_AT_EPOCH": 68839, "BSTAR": 7.6969e-05, "MEAN_MOTION_DOT": 1.25e-06, "MEAN_MOTION_DDOT": 0}, "tle": {"line1": "1 38771U 12049A   25358.12616966  .00000125  00000+0  76969-4 0  9990", "line2": "2 38771  98.6783  47.8911 0003252 120.3245 239.8255 14.21412569688391"}}, "geometry": {"type": "Point", "coordinates": [45.77202738305741, 15.745616133424942]}}, {"type": "Feature", "properties": {"norad_id": 39216, "name": "INSAT-3D", "group": "weather", "lat": -1.1007794040716201, "lon": 36.0512976888152, "alt_km": 35792.59651654239, "timestamp": "2025-12-24T11:32:59.645356+00:00", "meta": {"OBJECT_NAME": "INSAT-3D", "OBJECT_ID": "2013-038B", "EPOCH": "2025-12-23T20:35:46.548096", "MEAN_MOTION": 1.00275086, "ECCENTRICITY": 0.0001868, "INCLINATION": 1.4718, "RA_OF_ASC_NODE": 84.8718, "ARG_OF_PERICENTER": 154.9111, "MEAN_ANOMALY": 291.3295, "EPHEMERIS_TYPE": 0, "CLASSIFICATION_TYPE": "U", "NORAD_CAT_ID": 39216, "ELEMENT_SET_NO": 999, "REV_AT_EPOCH": 4532, "BSTAR": 0, "MEAN_MOTION_DOT": -3.18e-06, "MEAN_MOTION_DDOT": 0}, "tle": {"line1": "1 39216U 13038B   25357.85817764 -.00000318  00000+0  00000+0 0  9995", "line2": "2 39216   1.4718  84.8718 0001868 154.9111 291.3295  1.00275086 45329"}}, "geometry": {"type": "Point", "coordinates": [36.0512976888152, -1.1007794040716201]}}, {"type": "Feature", "properties": {"norad_id": 39260, "name": "FENGYUN 3C", "group": "weather", "lat": 21.281513478740866, "lon": -27.74254279518258, "alt_km": 848.0345824633259, "timestamp": "2025-12-24T11:32:59.645367+00:00", "meta": {"OBJECT_NAME": "FENGYUN 3C", "OBJECT_ID": "2013-052A", "EPOCH": "2025-12-24T04:39:47.931264", "MEAN_MOTION": 14.15699599, "ECCENTRICITY": 0.0014916, "INCLINATION": 98.4778, "RA_OF_ASC_NODE": 335.315, "ARG_OF_PERICENTER": 162.9541, "MEAN_ANOMALY": 197.2138, "EPHEMERIS_TYPE": 0, "CLASSIFICATION_TYPE": "U", "NORAD_CAT_ID": 39260, "ELEMENT_SET_NO": 999, "REV_AT_EPOCH": 63380, "BSTAR": 7.5535e-05, "MEAN_MOTION_DOT": 1.07e-06, "MEAN_MOTION_DDOT": 0}, "tle": {"line1": "1 39260U 13052A   25358.19430476  .00000107  00000+0  75535-4 0  9994", "line2": "2 39260  98.4778 335.3150 0014916 162.9541 197.2138 14.15699599633803"}}, "geometry": {"type": "Point", "coordinates": [-27.74254279518258, 21.281513478740866]}}, {"type": "Feature", "properties": {"norad_id": 40069, "name": "METEOR-M 2", "group": "weather", "lat": -62.206983574962436, "lon": 139.1508696680076, "alt_km": 826.4528060922612, "timestamp": "2025-12-24T11:32:59.645378+00:00", "meta": {"OBJECT_NAME": "METEOR-M 2", "OBJECT_ID": "2014-037A", "EPOCH": "2025-12-24T05:20:24.966816", "MEAN_MOTION": 14.21390958, "ECCENTRICITY": 0.0005591, "INCLINATION": 98.4914, "RA_OF_ASC_NODE": 335.3672, "ARG_OF_PERICENTER": 173.7454, "MEAN_ANOMALY": 186.3795, "EPHEMERIS_TYPE": 0, "CLASSIFICATION_TYPE": "U", "NORAD_CAT_ID": 40069, "ELEMENT_SET_NO": 999, "REV_AT_EPOCH": 59446, "BSTAR": 0.00016979, "MEAN_MOTION_DOT": 3.29e-06, "MEAN_MOTION_DDOT": 0}, "tle": {"line1": "1 40069U 14037A   25358.22251119  .00000329  00000+0  16979-3 0  9998", "line2": "2 40069  98.4914 335.3672 0005591 173.7454 186.3795 14.21390958594465"}}, "geometry": {"type": "Point", "coordinates": [139.1508696680076, -62.206983574962436]}}, {"type": "Feature", "properties": {"norad_id": 40267, "name": "HIMAWARI-8", "group": "weather", "lat": 0.01980062392503276, "lon": 47.175725547789035, "alt_km": 35786.93688714726, "timestamp": "2025-12-24T11:32:59.645390+00:00", "meta": {"OBJECT_NAME": "HIMAWARI-8", "OBJECT_ID": "2014-060A", "EPOCH": "2025-12-23T22:52:38.784288", "MEAN_MOTION": 1.00271829, "ECCENTRICITY": 8.68e-05, "INCLINATION": 0.0446, "RA_OF_ASC_NODE": 208.025, "ARG_OF_PERICENTER": 96.5752, "MEAN_ANOMALY": 271.9649, "EPHEMERIS_TYPE": 0, "CLASSIFICATION_TYPE": "U", "NORAD_CAT_ID": 40267, "ELEMENT_SET_NO": 999, "REV_AT_EPOCH": 4100, "BSTAR": 0, "MEAN_MOTION_DOT": -2.54e-06, "MEAN_MOTION_DDOT": 0}, "tle": {"line1": "1 40267U 14060A   25357.95322667 -.00000254  00000+0  00000+0 0  9992", "line2": "2 40267   0.0446 208.0250 0000868  96.5752 271.9649  1.00271829 41001"}}, "geometry": {"type": "Point", "coordinates": [47.175725547789035, 0.01980062392503276]}}, {"type": "Feature", "properties": {"norad_id": 40367, "name": "FENGYUN 2G", "group": "weather", "lat": -4.863221007850217, "lon": 5.8077160974416975, "alt_km": 35787.30002855833, "timestamp": "2025-12-24T11:32:59.645403+00:00", "meta": {"OBJECT_NAME": "FENGYUN 2G", "OBJECT_ID": "2014-090A", "EPOCH": "2025-12-23T18:44:19.570848", "MEAN_MOTION": 1.00283037, "ECCENTRICITY": 0.00017935, "INCLINATION": 5.1935, "RA_OF_ASC_NODE": 74.9603, "ARG_OF_PERICENTER": 171.7462, "MEAN_ANOMALY": 226.1214, "EPHEMERIS_TYPE": 0, "CLASSIFICATION_TYPE": "U", "NORAD_CAT_ID": 40367, "ELEMENT_SET_NO": 999, "REV_AT_EPOCH": 4024, "BSTAR": 0, "MEAN_MOTION_DOT": -2.82e-06, "MEAN_MOTION_DDOT": 0}, "tle": {"line1": "1 40367U 14090A   25357.78078207 -.00000282  00000+0  00000+0 0  9996", "line2": "2 40367   5.1935  74.9603 0001793 171.7462 226.1214  1.00283037 40244"}}, "geometry": {"type": "Point", "coordinates": [5.8077160974416975, -4.863221007850217]}}, {"type": "Feature", "properties": {"norad_id": 40732, "name": "METEOSAT-11 (MSG-4)", "group": "weather", "lat": -1.1334701293285345, "lon": -84.33233222743532, "alt_km": 35785.16751340313, "timestamp": "2025-12-24T11:32:59.645416+00:00", "meta": {"OBJECT_NAME": "METEOSAT-11 (MSG-4)", "OBJECT_ID": "2015-034A", "EPOCH": "2025-12-24T00:28:38.654112", "MEAN_MOTION": 1.00271024, "ECCENTRICITY": 7.38e-05, "INCLINATION": 2.7646, "RA_OF_ASC_NODE": 71.9713, "ARG_OF_PERICENTER": 137.1172, "MEAN_ANOMALY": 260.0587, "EPHEMERIS_TYPE": 0, "CLASSIFICATION_TYPE": "U", "NORAD_CAT_ID": 40732, "ELEMENT_SET_NO": 999, "REV_AT_EPOCH": 546, "BSTAR": 0, "MEAN_MOTION_DOT": 8.1e-07, "MEAN_MOTION_DDOT": 0}, "tle": {"line1": "1 40732U 15034A   25358.01989183  .00000081  00000+0  00000+0 0  9998", "line2": "2 40732   2.7646  71.9713 0000738 137.1172 260.0587  1.00271024  5461"}}, "geometry": {"type": "Point", "coordinates": [-84.33233222743532, -1.1334701293285345]}}, {"type": "Feature", "properties": {"norad_id": 41105, "name": "ELEKTRO-L 2", "group": "weather", "lat": 0.05867217973401609, "lon": -107.98128265448756, "alt_km": 35772.99769265743, "timestamp": "2025-12-24T11:32:59.645428+00:00", "meta": {"OBJECT_NAME": "ELEKTRO-L 2", "OBJECT_ID": "2015-074A", "EPOCH": "2025-12-23T23:20:08.306304", "MEAN_MOTION": 1.0027219, "ECCENTRICITY": 0.0003526, "INCLINATION": 6.2522, "RA_OF_ASC_NODE": 72.6944, "ARG_OF_PERICENTER": 208.9668, "MEAN_ANOMALY": 146.6578, "EPHEMERIS_TYPE": 0, "CLASSIFICATION_TYPE": "U", "NORAD_CAT_ID": 41105, "ELEMENT_SET_NO": 999, "REV_AT_EPOCH": 3674, "BSTAR": 0, "MEAN_MOTION_DOT": -9.8e-07, "MEAN_MOTION_DDOT": 0}, "tle": {"line1": "1 41105U 15074A   25357.97231836 -.00000098  00000+0  00000+0 0  9995", "line2": "2 41105   6.2522  72.6944 0003526 208.9668 146.6578  1.00272190 36746"}}, "geometry": {"type": "Point", "coordinates": [-107.98128265448756, 0.05867217973401609]}}, {"type": "Feature", "properties": {"norad_id": 41752, "name": "INSAT-3DR", "group": "weather", "lat": -0.12470858874792358, "lon": -19.360233894459537, "alt_km": 35764.238270295835, "timestamp": "2025-12-24T11:32:59.645440+00:00", "meta": {"OBJECT_NAME": "INSAT-3DR", "OBJECT_ID": "2016-054A", "EPOCH": "2025-12-24T02:10:38.805024", "MEAN_MOTION": 1.00271423, "ECCENTRICITY": 0.0014251, "INCLINATION": 0.1186, "RA_OF_ASC_NODE": 86.2454, "ARG_OF_PERICENTER": 185.6125, "MEAN_ANOMALY": 287.6641, "EPHEMERIS_TYPE": 0, "CLASSIFICATION_TYPE": "U", "NORAD_CAT_ID": 41752, "ELEMENT_SET_NO": 999, "REV_AT_EPOCH": 3406, "BSTAR": 0, "MEAN_MOTION_DOT": -5.6e-07, "MEAN_MOTION_DDOT": 0}, "tle": {"line1": "1 41752U 16054A   25358.09072691 -.00000056  00000+0  00000+0 0  9992", "line2": "2 41752   0.1186  86.2454 0014251 185.6125 287.6641  1.00271423 34064"}}, "geometry": {"type": "Point", "coordinates": [-19.360233894459537, -0.12470858874792358]}}]}